TDRS 3                  
1 19548U 88091B   22134.48389514 -.00000295  00000+0  00000+0 0  9992
2 19548  13.7405 351.5871 0036362 336.0082  30.0181  1.00269870110380
TDRS 6                  
1 22314U 93003B   22136.16078293 -.00000292  00000+0  00000+0 0  9999
2 22314  14.1302   8.1437 0011249 104.9336 132.8299  1.00274911107435
TDRS 7                  
1 23613U 95035B   22136.16090921 -.00000198  00000+0  00000+0 0  9996
2 23613  13.9907 358.8306 0029978  49.8284 327.8117  1.00268388 98281
TDRS 8                  
1 26388U 00034A   22135.82132642 -.00000228  00000+0  00000+0 0  9996
2 26388  10.3171  42.7756 0024205 343.0667 232.6370  1.00276860 80196
TIMED                   
1 26998U 01055B   22136.32115013  .00000943  00000+0  10511-3 0  9991
2 26998  74.0726 343.6586 0001923 244.3155 115.7827 14.88622578108221
TDRS 9                  
1 27389U 02011A   22136.34084233 -.00000280  00000+0  00000+0 0  9993
2 27389   8.9538  61.1095 0026204 303.4630 289.9738  1.00272689 75473
TDRS 10                 
1 27566U 02055A   22136.53749959  .00000095  00000+0  00000+0 0  9995
2 27566   8.1467  50.1480 0009928 336.4373 230.1056  1.00266249 71262
SORCE                   
1 27651U 03004A   22136.42514708  .00001673  00000+0  18440-3 0  9999
2 27651  39.9965  36.3163 0024493 248.9164 110.9006 14.89826608 48294
AURA                    
1 28376U 04026A   22136.56487910  .00000791  00000+0  18548-3 0  9997
2 28376  98.2077  80.3599 0001480  85.5242 274.6126 14.57113679948580
SWIFT                   
1 28485U 04047A   22136.44038830  .00004428  00000+0  26314-3 0  9992
2 28485  20.5554 175.1001 0010388 252.1099 107.8202 15.06216217958714
THEMIS D                
1 30797U 07004D   22135.61502601 -.00000058  00000+0  00000+0 0  9993
2 30797  10.7473 338.3213 8344000 172.4215  56.0173  0.87837586 27940
THEMIS E                
1 30798U 07004E   22135.48493573 -.00000170  00000+0  00000+0 0  9991
2 30798  11.4265 350.7965 8329780 162.2121   3.5216  0.87840964 52780
AIM                     
1 31304U 07015A   22136.34838687  .00009162  00000+0  46470-3 0  9996
2 31304  97.8572  54.3633 0006686 116.8325 243.3591 15.17161472826320
FGRST (GLAST)           
1 33053U 08029A   22136.36309845  .00002264  00000+0  11101-3 0  9995
2 33053  25.5834  25.9823 0012116 166.7791 193.3064 15.12097617768837
WISE                    
1 36119U 09071A   22136.35370802  .00008157  00000+0  25677-3 0  9999
2 36119  97.2418 171.4207 0004032  76.1382 284.0309 15.33180267690581
TDRS 11                 
1 39070U 13004A   22136.53421351  .00000085  00000+0  00000+0 0  9996
2 39070   2.9597 345.1856 0007347  62.3305 204.6224  1.00274502 34014
TDRS 12                 
1 39504U 14004A   22136.30396435 -.00000264  00000+0  00000+0 0  9998
2 39504   3.8883 346.7492 0004542 104.2011 211.5708  1.00274907 29300
GPM-CORE                
1 39574U 14009C   22136.51668781  .00025759  00000+0  36335-3 0  9998
2 39574  65.0027 297.0808 0009896 258.4825 101.5211 15.56489156466636
MMS 1                   
1 40482U 15011A   22135.89582355  .00000020  00000+0  00000+0 0  9994
2 40482  32.4916 106.5448 8624586  50.2766   7.6272  0.28447352 13203
MMS 2                   
1 40483U 15011B   22133.55627880  .00000239  00000+0  00000+0 0  9991
2 40483  32.5024 106.6485 8627440  50.1405 128.3983  0.28421432 13265
MMS 3                   
1 40484U 15011C   22134.60680574  .00000180  00000+0  00000+0 0  9993
2 40484  32.5000 106.6294 8624541  50.1804 235.8385  0.28418330 13173
MMS 4                   
1 40485U 15011D   22135.98347898  .00000007  00000+0  00000+0 0  9993
2 40485  32.4876 106.5503 8625065  50.2815  16.5820  0.28446221 13168
TDRS 13                 
1 42915U 17047A   22136.27619003 -.00000096  00000+0  00000+0 0  9996
2 42915   4.5243 333.2115 0019598 108.2195 240.4074  1.00271748 17376
