OBJECT_NAME,OBJECT_ID,EPOCH,MEAN_MOTION,ECCENTRICITY,INCLINATION,RA_OF_ASC_NODE,ARG_OF_PERICENTER,MEAN_ANOMALY,EPHEMERIS_TYPE,CLASSIFICATION_TYPE,NORAD_CAT_ID,ELEMENT_SET_NO,REV_AT_EPOCH,BSTAR,MEAN_MOTION_DOT,MEAN_MOTION_DDOT
TDRS 3,1988-091B,2022-05-14T11:36:48.540096,1.00269870,.0036362,13.7405,351.5871,336.0082,30.0181,0,U,19548,999,11038,0,-.295E-5,0
TDRS 6,1993-003B,2022-05-16T03:51:31.645152,1.00274911,.0011249,14.1302,8.1437,104.9336,132.8299,0,U,22314,999,10743,0,-.292E-5,0
TDRS 7,1995-035B,2022-05-16T03:51:42.555744,1.00268388,.0029978,13.9907,358.8306,49.8284,327.8117,0,U,23613,999,9828,0,-.198E-5,0
TDRS 8,2000-034A,2022-05-15T19:42:42.602688,1.00276860,.0024205,10.3171,42.7756,343.0667,232.6370,0,U,26388,999,8019,0,-.228E-5,0
TIMED,2001-055B,2022-05-16T07:42:27.371232,14.88622578,.0001923,74.0726,343.6586,244.3155,115.7827,0,U,26998,999,10822,.10511E-3,.943E-5,0
TDRS 9,2002-011A,2022-05-16T08:10:48.777312,1.00272689,.0026204,8.9538,61.1095,303.4630,289.9738,0,U,27389,999,7547,0,-.28E-5,0
TDRS 10,2002-055A,2022-05-16T12:53:59.964576,1.00266249,.0009928,8.1467,50.1480,336.4373,230.1056,0,U,27566,999,7126,0,.95E-6,0
SORCE,2003-004A,2022-05-16T10:12:12.707712,14.89826608,.0024493,39.9965,36.3163,248.9164,110.9006,0,U,27651,999,4829,.1844E-3,.1673E-4,0
AURA,2004-026A,2022-05-16T13:33:25.554240,14.57113679,.000148,98.2077,80.3599,85.5242,274.6126,0,U,28376,999,94858,.18548E-3,.791E-5,0
SWIFT,2004-047A,2022-05-16T10:34:09.549120,15.06216217,.0010388,20.5554,175.1001,252.1099,107.8202,0,U,28485,999,95871,.26314E-3,.4428E-4,0
THEMIS D,2007-004D,2022-05-15T14:45:38.247264,0.87837586,.8344,10.7473,338.3213,172.4215,56.0173,0,U,30797,999,2794,0,-.58E-6,0
THEMIS E,2007-004E,2022-05-15T11:38:18.447072,0.87840964,.832978,11.4265,350.7965,162.2121,3.5216,0,U,30798,999,5278,0,-.17E-5,0
AIM,2007-015A,2022-05-16T08:21:40.625568,15.17161472,.0006686,97.8572,54.3633,116.8325,243.3591,0,U,31304,999,82632,.4647E-3,.9162E-4,0
FGRST (GLAST),2008-029A,2022-05-16T08:42:51.706080,15.12097617,.0012116,25.5834,25.9823,166.7791,193.3064,0,U,33053,999,76883,.11101E-3,.2264E-4,0
WISE,2009-071A,2022-05-16T08:29:20.372928,15.33180267,.0004032,97.2418,171.4207,76.1382,284.0309,0,U,36119,999,69058,.25677E-3,.8157E-4,0
TDRS 11,2013-004A,2022-05-16T12:49:16.047264,1.00274502,.0007347,2.9597,345.1856,62.3305,204.6224,0,U,39070,999,3401,0,.85E-6,0
TDRS 12,2014-004A,2022-05-16T07:17:42.519840,1.00274907,.0004542,3.8883,346.7492,104.2011,211.5708,0,U,39504,999,2930,0,-.264E-5,0
GPM-CORE,2014-009C,2022-05-16T12:24:01.826784,15.56489156,.0009896,65.0027,297.0808,258.4825,101.5211,0,U,39574,999,46663,.36335E-3,.25759E-3,0
TIMED,2001-055B,2022-05-16T07:42:27.371232,14.88622578,.0001923,74.0726,343.6586,244.3155,115.7827,0,U,26998,999,10822,.10511E-3,.943E-5,0
MMS 1,2015-011A,2022-05-15T21:29:59.154720,0.28447352,.8624586,32.4916,106.5448,50.2766,7.6272,0,U,40482,999,1320,0,.2E-6,0
MMS 2,2015-011B,2022-05-13T13:21:02.488320,0.28421432,.862744,32.5024,106.6485,50.1405,128.3983,0,U,40483,999,1326,0,.239E-5,0
MMS 3,2015-011C,2022-05-14T14:33:48.015936,0.28418330,.8624541,32.5000,106.6294,50.1804,235.8385,0,U,40484,999,1317,0,.18E-5,0
MMS 4,2015-011D,2022-05-15T23:36:12.583872,0.28446221,.8625065,32.4876,106.5503,50.2815,16.5820,0,U,40485,999,1316,0,.7E-7,0
TDRS 13,2017-047A,2022-05-16T06:37:42.818592,1.00271748,.0019598,4.5243,333.2115,108.2195,240.4074,0,U,42915,999,1737,0,-.96E-6,0
